[{"OBJECT_NAME":"STARLINK-6168","OBJECT_ID":"2023-099AT","EPOCH":"2025-09-28T15:58:04.204416","MEAN_MOTION":15.02536632,"ECCENTRICITY":0.00017363,"INCLINATION":43.0055,"RA_OF_ASC_NODE":36.3551,"ARG_OF_PERICENTER":253.6283,"MEAN_ANOMALY":106.4369,"EPHEMERIS_TYPE":0,"CLASSIFICATION_TYPE":"U","NORAD_CAT_ID":57369,"ELEMENT_SET_NO":999,"REV_AT_EPOCH":12189,"BSTAR":6.6847877e-5,"MEAN_MOTION_DOT":6.99e-6,"MEAN_MOTION_DDOT":0},{"OBJECT_NAME":"STARLINK-5353","OBJECT_ID":"2023-099AU","EPOCH":"2025-09-28T15:35:41.829216","MEAN_MOTION":15.02541143,"ECCENTRICITY":6.662e-5,"INCLINATION":43.0023,"RA_OF_ASC_NODE":36.2339,"ARG_OF_PERICENTER":288.6869,"MEAN_ANOMALY":71.3901,"EPHEMERIS_TYPE":0,"CLASSIFICATION_TYPE":"U","NORAD_CAT_ID":57370,"ELEMENT_SET_NO":999,"REV_AT_EPOCH":12189,"BSTAR":-3.2837406e-5,"MEAN_MOTION_DOT":-6.47e-6,"MEAN_MOTION_DDOT":0},{"OBJECT_NAME":"STARLINK-6032","OBJECT_ID":"2023-099AV","EPOCH":"2025-09-28T19:06:19.653120","MEAN_MOTION":15.02552511,"ECCENTRICITY":0.0001272,"INCLINATION":43.0038,"RA_OF_ASC_NODE":35.6147,"ARG_OF_PERICENTER":259.1996,"MEAN_ANOMALY":100.8703,"EPHEMERIS_TYPE":0,"CLASSIFICATION_TYPE":"U","NORAD_CAT_ID":57371,"ELEMENT_SET_NO":999,"REV_AT_EPOCH":12191,"BSTAR":0.00018355545,"MEAN_MOTION_DOT":2.278e-5,"MEAN_MOTION_DDOT":0},{"OBJECT_NAME":"STARLINK-5975","OBJECT_ID":"2023-099AW","EPOCH":"2025-09-28T17:00:13.724352","MEAN_MOTION":15.02541154,"ECCENTRICITY":0.00011022,"INCLINATION":43.0043,"RA_OF_ASC_NODE":35.8062,"ARG_OF_PERICENTER":273.5272,"MEAN_ANOMALY":86.5444,"EPHEMERIS_TYPE":0,"CLASSIFICATION_TYPE":"U","NORAD_CAT_ID":57372,"ELEMENT_SET_NO":999,"REV_AT_EPOCH":12190,"BSTAR":0.00018590004,"MEAN_MOTION_DOT":2.309e-5,"MEAN_MOTION_DDOT":0},{"OBJECT_NAME":"STARLINK-6370","OBJECT_ID":"2023-099AX","EPOCH":"2025-09-28T16:44:24.983232","MEAN_MOTION":15.02537595,"ECCENTRICITY":0.0001592,"INCLINATION":43.0059,"RA_OF_ASC_NODE":36.5839,"ARG_OF_PERICENTER":266.3512,"MEAN_ANOMALY":93.7149,"EPHEMERIS_TYPE":0,"CLASSIFICATION_TYPE":"U","NORAD_CAT_ID":57373,"ELEMENT_SET_NO":999,"REV_AT_EPOCH":12189,"BSTAR":6.4834405e-5,"MEAN_MOTION_DOT":6.72e-6,"MEAN_MOTION_DDOT":0},{"OBJECT_NAME":"STARLINK-6369","OBJECT_ID":"2023-099AY","EPOCH":"2025-09-26T16:09:47.736288","MEAN_MOTION":15.02540851,"ECCENTRICITY":0.00014067,"INCLINATION":43.0059,"RA_OF_ASC_NODE":34.1965,"ARG_OF_PERICENTER":274.1167,"MEAN_ANOMALY":85.9515,"EPHEMERIS_TYPE":0,"CLASSIFICATION_TYPE":"U","NORAD_CAT_ID":57374,"ELEMENT_SET_NO":999,"REV_AT_EPOCH":12174,"BSTAR":0.0001019942,"MEAN_MOTION_DOT":1.174e-5,"MEAN_MOTION_DDOT":0},{"OBJECT_NAME":"STARLINK-6363","OBJECT_ID":"2023-099AZ","EPOCH":"2025-09-28T15:34:06.011616","MEAN_MOTION":15.02535254,"ECCENTRICITY":0.0001358,"INCLINATION":43.0041,"RA_OF_ASC_NODE":36.2316,"ARG_OF_PERICENTER":279.5188,"MEAN_ANOMALY":80.5501,"EPHEMERIS_TYPE":0,"CLASSIFICATION_TYPE":"U","NORAD_CAT_ID":57375,"ELEMENT_SET_NO":999,"REV_AT_EPOCH":12189,"BSTAR":3.1545438e-5,"MEAN_MOTION_DOT":2.22e-6,"MEAN_MOTION_DDOT":0},{"OBJECT_NAME":"STARLINK-6367","OBJECT_ID":"2023-099BA","EPOCH":"2025-09-28T16:55:26.438304","MEAN_MOTION":15.02537494,"ECCENTRICITY":0.00019329,"INCLINATION":43.0051,"RA_OF_ASC_NODE":35.7959,"ARG_OF_PERICENTER":285.7573,"MEAN_ANOMALY":74.3056,"EPHEMERIS_TYPE":0,"CLASSIFICATION_TYPE":"U","NORAD_CAT_ID":57376,"ELEMENT_SET_NO":999,"REV_AT_EPOCH":12190,"BSTAR":0.00010527121,"MEAN_MOTION_DOT":1.219e-5,"MEAN_MOTION_DDOT":0},{"OBJECT_NAME":"STARLINK-6358","OBJECT_ID":"2023-099BB","EPOCH":"2025-09-28T17:01:50.178720","MEAN_MOTION":15.02534666,"ECCENTRICITY":0.00014025,"INCLINATION":43.0049,"RA_OF_ASC_NODE":35.8281,"ARG_OF_PERICENTER":268.0002,"MEAN_ANOMALY":92.0679,"EPHEMERIS_TYPE":0,"CLASSIFICATION_TYPE":"U","NORAD_CAT_ID":57377,"ELEMENT_SET_NO":999,"REV_AT_EPOCH":12190,"BSTAR":4.8919e-8,"MEAN_MOTION_DOT":-2.03e-6,"MEAN_MOTION_DDOT":0},{"OBJECT_NAME":"STARLINK-6364","OBJECT_ID":"2023-099BC","EPOCH":"2025-09-29T06:17:08.945376","MEAN_MOTION":15.02547008,"ECCENTRICITY":8.386e-5,"INCLINATION":42.9981,"RA_OF_ASC_NODE":7.0748,"ARG_OF_PERICENTER":228.5594,"MEAN_ANOMALY":131.5176,"EPHEMERIS_TYPE":0,"CLASSIFICATION_TYPE":"U","NORAD_CAT_ID":57378,"ELEMENT_SET_NO":999,"REV_AT_EPOCH":12302,"BSTAR":9.354922e-5,"MEAN_MOTION_DOT":1.061e-5,"MEAN_MOTION_DDOT":0},{"OBJECT_NAME":"STARLINK-6361","OBJECT_ID":"2023-099BD","EPOCH":"2025-09-28T16:57:03.660768","MEAN_MOTION":15.02533978,"ECCENTRICITY":0.00013623,"INCLINATION":43.0027,"RA_OF_ASC_NODE":35.8001,"ARG_OF_PERICENTER":228.7158,"MEAN_ANOMALY":131.3567,"EPHEMERIS_TYPE":0,"CLASSIFICATION_TYPE":"U","NORAD_CAT_ID":57379,"ELEMENT_SET_NO":999,"REV_AT_EPOCH":12190,"BSTAR":7.3206843e-5,"MEAN_MOTION_DOT":7.85e-6,"MEAN_MOTION_DDOT":0},{"OBJECT_NAME":"STARLINK-6366","OBJECT_ID":"2023-099BE","EPOCH":"2025-09-28T14:18:16.804512","MEAN_MOTION":15.02538593,"ECCENTRICITY":9.934e-5,"INCLINATION":43.0036,"RA_OF_ASC_NODE":10.6784,"ARG_OF_PERICENTER":263.7778,"MEAN_ANOMALY":96.2951,"EPHEMERIS_TYPE":0,"CLASSIFICATION_TYPE":"U","NORAD_CAT_ID":57380,"ELEMENT_SET_NO":999,"REV_AT_EPOCH":12291,"BSTAR":0.00012927733,"MEAN_MOTION_DOT":1.543e-5,"MEAN_MOTION_DDOT":0},{"OBJECT_NAME":"STARLINK-6371","OBJECT_ID":"2023-099BF","EPOCH":"2025-09-29T06:58:20.890848","MEAN_MOTION":15.02551834,"ECCENTRICITY":0.00011559,"INCLINATION":43.0043,"RA_OF_ASC_NODE":20.2794,"ARG_OF_PERICENTER":243.9776,"MEAN_ANOMALY":116.0947,"EPHEMERIS_TYPE":0,"CLASSIFICATION_TYPE":"U","NORAD_CAT_ID":57381,"ELEMENT_SET_NO":999,"REV_AT_EPOCH":12287,"BSTAR":-0.00021566495,"MEAN_MOTION_DOT":-3.117e-5,"MEAN_MOTION_DDOT":0},{"OBJECT_NAME":"STARLINK-30240","OBJECT_ID":"2023-102A","EPOCH":"2025-09-28T21:12:01.851264","MEAN_MOTION":15.02546675,"ECCENTRICITY":0.00022949,"INCLINATION":43.0061,"RA_OF_ASC_NODE":48.3251,"ARG_OF_PERICENTER":218.3063,"MEAN_ANOMALY":141.7616,"EPHEMERIS_TYPE":0,"CLASSIFICATION_TYPE":"U","NORAD_CAT_ID":57404,"ELEMENT_SET_NO":999,"REV_AT_EPOCH":12189,"BSTAR":5.0473089e-5,"MEAN_MOTION_DOT":4.78e-6,"MEAN_MOTION_DDOT":0},{"OBJECT_NAME":"STARLINK-30192","OBJECT_ID":"2023-102B","EPOCH":"2025-09-28T17:55:46.520544","MEAN_MOTION":15.02540232,"ECCENTRICITY":0.00013799,"INCLINATION":43.0043,"RA_OF_ASC_NODE":49.0118,"ARG_OF_PERICENTER":268.8058,"MEAN_ANOMALY":91.2626,"EPHEMERIS_TYPE":0,"CLASSIFICATION_TYPE":"U","NORAD_CAT_ID":57405,"ELEMENT_SET_NO":999,"REV_AT_EPOCH":12187,"BSTAR":0.00014065354,"MEAN_MOTION_DOT":1.697e-5,"MEAN_MOTION_DDOT":0},{"OBJECT_NAME":"STARLINK-30195","OBJECT_ID":"2023-102C","EPOCH":"2025-09-28T16:15:15.978528","MEAN_MOTION":15.0253244,"ECCENTRICITY":0.00010823,"INCLINATION":43.0022,"RA_OF_ASC_NODE":49.3598,"ARG_OF_PERICENTER":257.2636,"MEAN_ANOMALY":102.8086,"EPHEMERIS_TYPE":0,"CLASSIFICATION_TYPE":"U","NORAD_CAT_ID":57406,"ELEMENT_SET_NO":999,"REV_AT_EPOCH":12186,"BSTAR":1.0424314e-5,"MEAN_MOTION_DOT":-6.3e-7,"MEAN_MOTION_DDOT":0}]
