STARLINK-6168           
1 57369U 23099AT  25271.66532644  .00000699  00000+0  66848-4 0  9995
2 57369  43.0055  36.3551 0001736 253.6283 106.4369 15.02536632121891
STARLINK-5353           
1 57370U 23099AU  25271.64978969 -.00000647  00000+0 -32837-4 0  9995
2 57370  43.0023  36.2339 0000666 288.6869  71.3901 15.02541143121895
STARLINK-6032           
1 57371U 23099AV  25271.79606080  .00002278  00000+0  18356-3 0  9993
2 57371  43.0038  35.6147 0001272 259.1996 100.8703 15.02552511121912
STARLINK-5975           
1 57372U 23099AW  25271.70849218  .00002309  00000+0  18590-3 0  9992
2 57372  43.0043  35.8062 0001102 273.5272  86.5444 15.02541154121908
STARLINK-6370           
1 57373U 23099AX  25271.69751138  .00000672  00000+0  64834-4 0  9998
2 57373  43.0059  36.5839 0001592 266.3512  93.7149 15.02537595121890
STARLINK-6369           
1 57374U 23099AY  25269.67346917  .00001174  00000+0  10199-3 0  9991
2 57374  43.0059  34.1965 0001406 274.1167  85.9515 15.02540851121745
STARLINK-6363           
1 57375U 23099AZ  25271.64868069  .00000222  00000+0  31545-4 0  9991
2 57375  43.0041  36.2316 0001358 279.5188  80.5501 15.02535254121891
STARLINK-6367           
1 57376U 23099BA  25271.70516711  .00001219  00000+0  10527-3 0  9996
2 57376  43.0051  35.7959 0001932 285.7573  74.3056 15.02537494121901
STARLINK-6358           
1 57377U 23099BB  25271.70960855 -.00000203  00000+0  48919-7 0  9992
2 57377  43.0049  35.8281 0001402 268.0002  92.0679 15.02534666121907
STARLINK-6364           
1 57378U 23099BC  25272.26190909  .00001061  00000+0  93549-4 0  9998
2 57378  42.9981   7.0748 0000838 228.5594 131.5176 15.02547008123029
STARLINK-6361           
1 57379U 23099BD  25271.70629237  .00000785  00000+0  73207-4 0  9999
2 57379  43.0027  35.8001 0001362 228.7158 131.3567 15.02533978121903
STARLINK-6366           
1 57380U 23099BE  25271.59602783  .00001543  00000+0  12928-3 0  9990
2 57380  43.0036  10.6784 0000993 263.7778  96.2951 15.02538593122916
STARLINK-6371           
1 57381U 23099BF  25272.29051957 -.00003117  00000+0 -21566-3 0  9999
2 57381  43.0043  20.2794 0001155 243.9776 116.0947 15.02551834122876
STARLINK-30240          
1 57404U 23102A   25271.88335476  .00000478  00000+0  50473-4 0  9990
2 57404  43.0061  48.3251 0002294 218.3063 141.7616 15.02546675121897
STARLINK-30192          
1 57405U 23102B   25271.74706621  .00001697  00000+0  14065-3 0  9990
2 57405  43.0043  49.0118 0001379 268.8058  91.2626 15.02540232121876
STARLINK-30195          
1 57406U 23102C   25271.67726827 -.00000063  00000+0  10424-4 0  9996
2 57406  43.0022  49.3598 0001082 257.2636 102.8086 15.02532440121864
